[{"OBJECT_NAME":"INTELSAT 23 (IS-23)","OBJECT_ID":"2012-057A","EPOCH":"2026-03-05T04:30:38.664864","MEAN_MOTION":1.00270303,"ECCENTRICITY":0.00012041,"INCLINATION":0.0519,"RA_OF_ASC_NODE":263.2099,"ARG_OF_PERICENTER":85.6198,"MEAN_ANOMALY":188.7522,"EPHEMERIS_TYPE":0,"CLASSIFICATION_TYPE":"U","NORAD_CAT_ID":38867,"ELEMENT_SET_NO":999,"REV_AT_EPOCH":4891,"BSTAR":0,"MEAN_MOTION_DOT":-2.93e-6,"MEAN_MOTION_DDOT":0},{"OBJECT_NAME":"FM-6","OBJECT_ID":"2013-058A","EPOCH":"2026-03-04T22:49:38.670528","MEAN_MOTION":1.00269084,"ECCENTRICITY":0.00028603,"INCLINATION":0.0237,"RA_OF_ASC_NODE":126.4779,"ARG_OF_PERICENTER":55.9964,"MEAN_ANOMALY":206.424,"EPHEMERIS_TYPE":0,"CLASSIFICATION_TYPE":"U","NORAD_CAT_ID":39360,"ELEMENT_SET_NO":999,"REV_AT_EPOCH":4502,"BSTAR":0,"MEAN_MOTION_DOT":-2.6e-7,"MEAN_MOTION_DDOT":0},{"OBJECT_NAME":"INTELSAT 30 (IS-30)","OBJECT_ID":"2014-062A","EPOCH":"2026-03-05T03:41:38.459040","MEAN_MOTION":1.00270863,"ECCENTRICITY":0.00013519,"INCLINATION":0.019,"RA_OF_ASC_NODE":82.0551,"ARG_OF_PERICENTER":24.0226,"MEAN_ANOMALY":17.1701,"EPHEMERIS_TYPE":0,"CLASSIFICATION_TYPE":"U","NORAD_CAT_ID":40271,"ELEMENT_SET_NO":999,"REV_AT_EPOCH":575,"BSTAR":0,"MEAN_MOTION_DOT":-1.59e-6,"MEAN_MOTION_DDOT":0},{"OBJECT_NAME":"DIRECTV 14","OBJECT_ID":"2014-078B","EPOCH":"2026-03-04T08:33:38.625984","MEAN_MOTION":1.00276103,"ECCENTRICITY":2.588e-5,"INCLINATION":0.0203,"RA_OF_ASC_NODE":123.6906,"ARG_OF_PERICENTER":52.3431,"MEAN_ANOMALY":15.2398,"EPHEMERIS_TYPE":0,"CLASSIFICATION_TYPE":"U","NORAD_CAT_ID":40333,"ELEMENT_SET_NO":999,"REV_AT_EPOCH":4099,"BSTAR":0,"MEAN_MOTION_DOT":-1.38e-6,"MEAN_MOTION_DDOT":0},{"OBJECT_NAME":"DIRECTV 15","OBJECT_ID":"2015-026A","EPOCH":"2026-03-05T06:39:44.986464","MEAN_MOTION":1.00269995,"ECCENTRICITY":4.693e-5,"INCLINATION":0.0215,"RA_OF_ASC_NODE":104.4429,"ARG_OF_PERICENTER":109.1536,"MEAN_ANOMALY":306.4648,"EPHEMERIS_TYPE":0,"CLASSIFICATION_TYPE":"U","NORAD_CAT_ID":40663,"ELEMENT_SET_NO":999,"REV_AT_EPOCH":3942,"BSTAR":0,"MEAN_MOTION_DOT":-1.1e-6,"MEAN_MOTION_DDOT":0},{"OBJECT_NAME":"SKY MEXICO-1","OBJECT_ID":"2015-026B","EPOCH":"2026-03-05T05:03:54.175680","MEAN_MOTION":1.00269545,"ECCENTRICITY":0.00022475,"INCLINATION":0.021,"RA_OF_ASC_NODE":125.1141,"ARG_OF_PERICENTER":239.0108,"MEAN_ANOMALY":155.9854,"EPHEMERIS_TYPE":0,"CLASSIFICATION_TYPE":"U","NORAD_CAT_ID":40664,"ELEMENT_SET_NO":999,"REV_AT_EPOCH":3941,"BSTAR":0,"MEAN_MOTION_DOT":-2.43e-6,"MEAN_MOTION_DDOT":0},{"OBJECT_NAME":"INTELSAT 34 (IS-34)","OBJECT_ID":"2015-039A","EPOCH":"2026-03-05T04:30:38.664864","MEAN_MOTION":1.00270492,"ECCENTRICITY":1.42e-5,"INCLINATION":0.0204,"RA_OF_ASC_NODE":249.6555,"ARG_OF_PERICENTER":206.4616,"MEAN_ANOMALY":78.9712,"EPHEMERIS_TYPE":0,"CLASSIFICATION_TYPE":"U","NORAD_CAT_ID":40874,"ELEMENT_SET_NO":999,"REV_AT_EPOCH":3858,"BSTAR":0,"MEAN_MOTION_DOT":-2.94e-6,"MEAN_MOTION_DDOT":0},{"OBJECT_NAME":"INTELSAT 31 (IS-31)","OBJECT_ID":"2016-035A","EPOCH":"2026-03-05T04:59:17.118528","MEAN_MOTION":1.00271071,"ECCENTRICITY":0.00016865,"INCLINATION":0.0362,"RA_OF_ASC_NODE":247.2387,"ARG_OF_PERICENTER":348.1997,"MEAN_ANOMALY":267.2701,"EPHEMERIS_TYPE":0,"CLASSIFICATION_TYPE":"U","NORAD_CAT_ID":41581,"ELEMENT_SET_NO":999,"REV_AT_EPOCH":3564,"BSTAR":0,"MEAN_MOTION_DOT":-1.59e-6,"MEAN_MOTION_DDOT":0},{"OBJECT_NAME":"INTELSAT 36 (IS-36)","OBJECT_ID":"2016-053A","EPOCH":"2026-03-05T05:47:38.745024","MEAN_MOTION":1.00270816,"ECCENTRICITY":0.00011997,"INCLINATION":0.0155,"RA_OF_ASC_NODE":86.6285,"ARG_OF_PERICENTER":239.7885,"MEAN_ANOMALY":351.9528,"EPHEMERIS_TYPE":0,"CLASSIFICATION_TYPE":"U","NORAD_CAT_ID":41747,"ELEMENT_SET_NO":999,"REV_AT_EPOCH":3491,"BSTAR":0,"MEAN_MOTION_DOT":-3.2e-7,"MEAN_MOTION_DDOT":0},{"OBJECT_NAME":"INTELSAT 32E (IS-32E)","OBJECT_ID":"2017-007B","EPOCH":"2026-03-04T08:06:38.530080","MEAN_MOTION":1.00269658,"ECCENTRICITY":3.869e-5,"INCLINATION":0.0172,"RA_OF_ASC_NODE":127.0773,"ARG_OF_PERICENTER":135.5633,"MEAN_ANOMALY":337.9102,"EPHEMERIS_TYPE":0,"CLASSIFICATION_TYPE":"U","NORAD_CAT_ID":41945,"ELEMENT_SET_NO":999,"REV_AT_EPOCH":3317,"BSTAR":0,"MEAN_MOTION_DOT":-2.81e-6,"MEAN_MOTION_DDOT":0},{"OBJECT_NAME":"INTELSAT 35E (IS-35E)","OBJECT_ID":"2017-041A","EPOCH":"2026-03-05T04:14:38.536224","MEAN_MOTION":1.0027089,"ECCENTRICITY":0.0002225,"INCLINATION":0.0257,"RA_OF_ASC_NODE":241.7413,"ARG_OF_PERICENTER":103.6087,"MEAN_ANOMALY":206.6953,"EPHEMERIS_TYPE":0,"CLASSIFICATION_TYPE":"U","NORAD_CAT_ID":42818,"ELEMENT_SET_NO":999,"REV_AT_EPOCH":3177,"BSTAR":0,"MEAN_MOTION_DOT":-2.47e-6,"MEAN_MOTION_DDOT":0},{"OBJECT_NAME":"INTELSAT 37E (IS-37E)","OBJECT_ID":"2017-059A","EPOCH":"2026-03-05T04:22:38.719776","MEAN_MOTION":1.00271578,"ECCENTRICITY":0.00021562,"INCLINATION":0.0085,"RA_OF_ASC_NODE":107.7768,"ARG_OF_PERICENTER":235.3434,"MEAN_ANOMALY":227.4473,"EPHEMERIS_TYPE":0,"CLASSIFICATION_TYPE":"U","NORAD_CAT_ID":42950,"ELEMENT_SET_NO":999,"REV_AT_EPOCH":3102,"BSTAR":0,"MEAN_MOTION_DOT":-1.5e-6,"MEAN_MOTION_DDOT":0},{"OBJECT_NAME":"AZERSPACE 2 (IS-38)","OBJECT_ID":"2018-074A","EPOCH":"2026-03-05T05:38:58.314624","MEAN_MOTION":1.00271096,"ECCENTRICITY":0.00014466,"INCLINATION":0.0249,"RA_OF_ASC_NODE":144.8365,"ARG_OF_PERICENTER":215.2621,"MEAN_ANOMALY":292.7357,"EPHEMERIS_TYPE":0,"CLASSIFICATION_TYPE":"U","NORAD_CAT_ID":43632,"ELEMENT_SET_NO":999,"REV_AT_EPOCH":2740,"BSTAR":0,"MEAN_MOTION_DOT":0,"MEAN_MOTION_DDOT":0},{"OBJECT_NAME":"HORIZONS-3E","OBJECT_ID":"2018-074B","EPOCH":"2026-03-05T04:39:39.056256","MEAN_MOTION":1.00270199,"ECCENTRICITY":5.467e-5,"INCLINATION":0.0086,"RA_OF_ASC_NODE":164.0541,"ARG_OF_PERICENTER":193.4122,"MEAN_ANOMALY":44.3725,"EPHEMERIS_TYPE":0,"CLASSIFICATION_TYPE":"U","NORAD_CAT_ID":43633,"ELEMENT_SET_NO":999,"REV_AT_EPOCH":2729,"BSTAR":0,"MEAN_MOTION_DOT":0,"MEAN_MOTION_DDOT":0},{"OBJECT_NAME":"AT&T T-16","OBJECT_ID":"2019-034A","EPOCH":"2026-03-05T03:41:38.459040","MEAN_MOTION":1.00273465,"ECCENTRICITY":8.987e-5,"INCLINATION":0.026,"RA_OF_ASC_NODE":99.4351,"ARG_OF_PERICENTER":70.8775,"MEAN_ANOMALY":307.1124,"EPHEMERIS_TYPE":0,"CLASSIFICATION_TYPE":"U","NORAD_CAT_ID":44333,"ELEMENT_SET_NO":999,"REV_AT_EPOCH":2459,"BSTAR":0,"MEAN_MOTION_DOT":-1.24e-6,"MEAN_MOTION_DDOT":0},{"OBJECT_NAME":"INTELSAT 39 (IS-39)","OBJECT_ID":"2019-049B","EPOCH":"2026-03-05T05:47:38.745024","MEAN_MOTION":1.00269573,"ECCENTRICITY":7.1e-5,"INCLINATION":0.0243,"RA_OF_ASC_NODE":150.8895,"ARG_OF_PERICENTER":354.7393,"MEAN_ANOMALY":166.207,"EPHEMERIS_TYPE":0,"CLASSIFICATION_TYPE":"U","NORAD_CAT_ID":44476,"ELEMENT_SET_NO":999,"REV_AT_EPOCH":2408,"BSTAR":0,"MEAN_MOTION_DOT":0,"MEAN_MOTION_DDOT":0},{"OBJECT_NAME":"GALAXY 30 (G-30)","OBJECT_ID":"2020-056C","EPOCH":"2026-03-05T06:33:23.095872","MEAN_MOTION":1.00271117,"ECCENTRICITY":0.00020654,"INCLINATION":0.0228,"RA_OF_ASC_NODE":160.9213,"ARG_OF_PERICENTER":191.705,"MEAN_ANOMALY":143.7425,"EPHEMERIS_TYPE":0,"CLASSIFICATION_TYPE":"U","NORAD_CAT_ID":46114,"ELEMENT_SET_NO":999,"REV_AT_EPOCH":2025,"BSTAR":0,"MEAN_MOTION_DOT":0,"MEAN_MOTION_DDOT":0}]
