INTELSAT 23 (IS-23)     
1 38867U 12057A   26064.18794751 -.00000293  00000+0  00000+0 0  9990
2 38867   0.0519 263.2099 0001204  85.6198 188.7522  1.00270303 48915
FM-6                    
1 39360U 13058A   26063.95114202 -.00000026  00000+0  00000+0 0  9996
2 39360   0.0237 126.4779 0002860  55.9964 206.4240  1.00269084 45024
INTELSAT 30 (IS-30)     
1 40271U 14062A   26064.15391735 -.00000159  00000+0  00000+0 0  9993
2 40271   0.0190  82.0551 0001351  24.0226  17.1701  1.00270863  5754
DIRECTV 14              
1 40333U 14078B   26063.35669706 -.00000138  00000+0  00000+0 0  9993
2 40333   0.0203 123.6906 0000258  52.3431  15.2398  1.00276103 40990
DIRECTV 15              
1 40663U 15026A   26064.27760401 -.00000110  00000+0  00000+0 0  9999
2 40663   0.0215 104.4429 0000469 109.1536 306.4648  1.00269995 39427
SKY MEXICO-1            
1 40664U 15026B   26064.21104370 -.00000243  00000+0  00000+0 0  9998
2 40664   0.0210 125.1141 0002247 239.0108 155.9854  1.00269545 39414
INTELSAT 34 (IS-34)     
1 40874U 15039A   26064.18794751 -.00000294  00000+0  00000+0 0  9995
2 40874   0.0204 249.6555 0000142 206.4616  78.9712  1.00270492 38582
INTELSAT 31 (IS-31)     
1 41581U 16035A   26064.20783702 -.00000159  00000+0  00000+0 0  9995
2 41581   0.0362 247.2387 0001686 348.1997 267.2701  1.00271071 35649
INTELSAT 36 (IS-36)     
1 41747U 16053A   26064.24142066 -.00000032  00000+0  00000+0 0  9995
2 41747   0.0155  86.6285 0001199 239.7885 351.9528  1.00270816 34918
INTELSAT 32E (IS-32E)   
1 41945U 17007B   26063.33794595 -.00000281  00000+0  00000+0 0  9990
2 41945   0.0172 127.0773 0000386 135.5633 337.9102  1.00269658 33171
INTELSAT 35E (IS-35E)   
1 42818U 17041A   26064.17683491 -.00000247  00000+0  00000+0 0  9995
2 42818   0.0257 241.7413 0002225 103.6087 206.6953  1.00270890 31773
INTELSAT 37E (IS-37E)   
1 42950U 17059A   26064.18239259 -.00000150  00000+0  00000+0 0  9994
2 42950   0.0085 107.7768 0002156 235.3434 227.4473  1.00271578 31025
AZERSPACE 2 (IS-38)     
1 43632U 18074A   26064.23539716  .00000000  00000+0  00000+0 0  9990
2 43632   0.0249 144.8365 0001446 215.2621 292.7357  1.00271096 27404
HORIZONS-3E             
1 43633U 18074B   26064.19420204  .00000000  00000+0  00000+0 0  9997
2 43633   0.0086 164.0541 0000546 193.4122  44.3725  1.00270199 27297
AT&T T-16               
1 44333U 19034A   26064.15391735 -.00000124  00000+0  00000+0 0  9992
2 44333   0.0260  99.4351 0000898  70.8775 307.1124  1.00273465 24593
INTELSAT 39 (IS-39)     
1 44476U 19049B   26064.24142066  .00000000  00000+0  00000+0 0  9999
2 44476   0.0243 150.8895 0000710 354.7393 166.2070  1.00269573 24083
GALAXY 30 (G-30)        
1 46114U 20056C   26064.27318398  .00000000  00000+0  00000+0 0  9996
2 46114   0.0228 160.9213 0002065 191.7050 143.7425  1.00271117 20253
